[{"OBJECT_NAME":"STARLINK-1020","OBJECT_ID":"2019-074N","EPOCH":"2026-03-09T16:03:14.161824","MEAN_MOTION":15.30188453,"ECCENTRICITY":9.782e-5,"INCLINATION":53.1589,"RA_OF_ASC_NODE":203.9432,"ARG_OF_PERICENTER":90.3777,"MEAN_ANOMALY":269.7336,"EPHEMERIS_TYPE":0,"CLASSIFICATION_TYPE":"U","NORAD_CAT_ID":44725,"ELEMENT_SET_NO":999,"REV_AT_EPOCH":34850,"BSTAR":-5.0945385e-5,"MEAN_MOTION_DOT":-1.867e-5,"MEAN_MOTION_DDOT":0},{"OBJECT_NAME":"KUIPER-00208","OBJECT_ID":"2026-030M","EPOCH":"2026-03-09T16:08:08.024640","MEAN_MOTION":15.32208734,"ECCENTRICITY":0.00155248,"INCLINATION":51.8846,"RA_OF_ASC_NODE":219.6993,"ARG_OF_PERICENTER":57.3146,"MEAN_ANOMALY":302.9333,"EPHEMERIS_TYPE":0,"CLASSIFICATION_TYPE":"U","NORAD_CAT_ID":67775,"ELEMENT_SET_NO":999,"REV_AT_EPOCH":508,"BSTAR":0.0013882708,"MEAN_MOTION_DOT":0.00043852,"MEAN_MOTION_DDOT":0}]
