STARLINK-1020           
1 44725U 19074N   26068.66891391 -.00001867  00000+0 -50945-4 0  9998
2 44725  53.1589 203.9432 0000978  90.3777 269.7336 15.30188453348509
KUIPER-00208            
1 67775U 26030M   26068.67231509  .00043852  00000+0  13883-2 0  9994
2 67775  51.8846 219.6993 0015525  57.3146 302.9333 15.32208734  5080
